[{"OBJECT_NAME":"STARLINK-3175","OBJECT_ID":"2022-005AN","EPOCH":"2026-03-09T20:29:15.389376","MEAN_MOTION":15.08836064,"ECCENTRICITY":0.0001417,"INCLINATION":53.2171,"RA_OF_ASC_NODE":298.3933,"ARG_OF_PERICENTER":91.4644,"MEAN_ANOMALY":268.651,"EPHEMERIS_TYPE":0,"CLASSIFICATION_TYPE":"U","NORAD_CAT_ID":51140,"ELEMENT_SET_NO":999,"REV_AT_EPOCH":22876,"BSTAR":-2.3427906e-5,"MEAN_MOTION_DOT":-6.61e-6,"MEAN_MOTION_DDOT":0},{"OBJECT_NAME":"OBJECT R","OBJECT_ID":"2023-091R","EPOCH":"2026-03-09T23:14:08.723328","MEAN_MOTION":15.13803604,"ECCENTRICITY":0.00168604,"INCLINATION":97.5196,"RA_OF_ASC_NODE":124.2169,"ARG_OF_PERICENTER":118.5914,"MEAN_ANOMALY":241.7016,"EPHEMERIS_TYPE":0,"CLASSIFICATION_TYPE":"U","NORAD_CAT_ID":57181,"ELEMENT_SET_NO":999,"REV_AT_EPOCH":14867,"BSTAR":0.00029975355,"MEAN_MOTION_DOT":5.364e-5,"MEAN_MOTION_DDOT":0}]
